CUTE-1 (CO-55)          
1 27844U 03031E   26140.00803821  .00000178  00000+0  96019-4 0  9991
2 27844  98.6744 148.9214 0008286 267.0661  92.9569 14.24316440187663
CUBESAT XI-IV (CO-57)   
1 27848U 03031J   26139.98238931  .00000137  00000+0  79314-4 0  9998
2 27848  98.6775 148.6313 0008249 288.4861  71.5421 14.23604015187360
CUBESAT XI-V            
1 28895U 05043F   26139.38868413  .00000744  00000+0  12526-3 0  9999
2 28895  98.2953 294.4126 0012867 299.2337  60.7582 14.72545772 97511
CUTE-1.7+APD II (CO-65) 
1 32785U 08021C   26140.20506723  .00003156  00000+0  20279-3 0  9991
2 32785  97.8273 121.0514 0010643 118.5011 241.7290 15.09154477980979
CANX-2                  
1 32790U 08021H   26140.17381222  .00002089  00000+0  15007-3 0  9995
2 32790  97.8620 119.4156 0011551 132.9163 227.3034 15.05385874980598
SEEDS II (CO-66)        
1 32791U 08021J   26139.92312925  .00013942  00000+0  45792-3 0  9995
2 32791  97.7525 136.4962 0004720  70.7041 289.4710 15.31684611982963
SWISSCUBE               
1 35932U 09051B   26140.18538030  .00000626  00000+0  13360-3 0  9997
2 35932  98.4054  47.5847 0005732 309.0564  51.0126 14.62420263885065
BEESAT-1                
1 35933U 09051C   26140.18033448  .00000527  00000+0  11584-3 0  9997
2 35933  98.3982  47.2734 0004525 328.5658  31.5271 14.61668552885097
ITUPSAT1                
1 35935U 09051E   26140.14674660  .00000487  00000+0  11071-3 0  9998
2 35935  98.4068  46.4608 0006934 336.2041  23.8837 14.60392785884647
TISAT 1                 
1 36799U 10035E   26140.08063675  .00015156  00000+0  51587-3 0  9997
2 36799  98.0705  84.1655 0002862  40.1256 320.0193 15.30526645863406
AEROCUBE 4.5A           
1 38767U 12048K   26140.05164505  .00159858  00000+0  84518-3 0  9999
2 38767  64.6284 128.5167 0018207 216.1305 143.8621 15.79656828368198
STRAND-1                
1 39090U 13009E   26140.20713603  .00000154  00000+0  66315-4 0  9993
2 39090  98.3917 321.1315 0007775 321.3911  38.6719 14.37144735693047
BRITE-AUSTRIA           
1 39091U 13009F   26140.06868299  .00000103  00000+0  49595-4 0  9995
2 39091  98.3988 320.2016 0009494 330.4286  29.6363 14.36529677693013
NEE-01 PEGASO           
1 39151U 13018B   26139.92705426  .00001532  00000+0  15130-3 0  9991
2 39151  98.1188 283.1528 0011372 255.2186 104.7773 14.93502115706483
POPACS 2                
1 39269U 13055E   26140.05465439  .00011304  00000+0  19437-3 0  9997
2 39269  80.9910 176.3822 0418482 284.2877  71.2218 14.90546730659024
POPACS 3                
1 39270U 13055F   26139.59550834  .00012545  00000+0  29806-3 0  9999
2 39270  81.0018 260.1669 0554722 156.9410 205.7769 14.55402350634392
ZACUBE-1 (TSHEPISOSAT)  
1 39417U 13066B   26140.14343250  .00003103  00000+0  24410-3 0  9995
2 39417  97.8124 102.3287 0040930 346.9906  13.0258 15.00950381676520
WNISAT-1                
1 39423U 13066H   26140.21160051  .00000300  00000+0  63806-4 0  9995
2 39423  97.7168 291.3589 0162186 320.4097  38.5348 14.58022822662657
TRITON-1                
1 39427U 13066M   26140.20161378  .00001762  00000+0  21631-3 0  9993
2 39427  97.8269  50.6463 0089462 326.6110  32.9480 14.81574026669948
GOMX-1                  
1 39430U 13066Q   26140.19816225  .00001217  00000+0  18892-3 0  9993
2 39430  97.6494 342.4262 0129030 166.7317 193.7338 14.69335153665808
CUBEBUG-2 (LO-74)       
1 39440U 13066AA  26140.12760279  .00002507  00000+0  23565-3 0  9990
2 39440  97.8896  88.9962 0059340 119.6409 241.0739 14.93518082672802
NEE-02 KRYSAOR          
1 39441U 13066AB  26139.26541490  .00000950  00000+0  10953-3 0  9993
2 39441  97.8886  78.6919 0066597 163.2693 197.0741 14.86495337671904
FUNCUBE-1 (AO-73)       
1 39444U 13066AE  26139.88001221  .00005392  00000+0  33982-3 0  9999
2 39444  97.8266 110.7464 0034852 301.7800  58.0035 15.09086227675399
UWE-3                   
1 39446U 13066AG  26139.87297777  .00002931  00000+0  25518-3 0  9995
2 39446  97.8681  95.7656 0050416  55.1859 305.4090 14.96754231673340
BRITE-CA1 (TORONTO)     
1 40020U 14033L   26139.90850546  .00000408  00000+0  69051-4 0  9991
2 40020  97.9701 269.3647 0078758   8.4972 351.7549 14.72633844638051
DUCHIFAT-1              
1 40021U 14033M   26140.08608869  .00064942  00000+0  82604-3 0  9993
2 40021  98.0490 195.4268 0006264 168.4581 191.6819 15.59142143651366
NANOSATC-BR1            
1 40024U 14033Q   26140.03540774  .00013156  00000+0  44910-3 0  9990
2 40024  98.0738 169.9486 0001648 278.4852  81.6200 15.30471492649670
QB50P1                  
1 40025U 14033R   26140.00371372  .00005389  00000+0  27037-3 0  9994
2 40025  98.0974 149.1842 0007644 333.1747  26.9089 15.17775159648750
QB50P2                  
1 40032U 14033Y   26139.96289767  .00004295  00000+0  23558-3 0  9990
2 40032  98.0754 135.0967 0005650 272.1099  87.9484 15.14755956648399
PERSEUS-M2              
1 40037U 14033AD  26140.16164819  .00001308  00000+0  12376-3 0  9997
2 40037  97.9968  90.1375 0013209  38.6827 321.5337 14.95418119646595
